{
  "type": "FeatureCollection",
  "features": [
    {
      "type": "Feature",
      "properties": {
        "norad_id": 44334,
        "name": "EUTELSAT 7C",
        "group": "eutelsat",
        "lat": -0.044568928331838516,
        "lon": 88.7552042977605,
        "alt_km": 35798.430362434105,
        "timestamp": "2025-12-18T23:35:48.718921+00:00",
        "meta_object_name": "EUTELSAT 7C",
        "meta_object_id": "2019-034B",
        "meta_epoch": "2025-12-18T15:02:24.148896",
        "meta_mean_motion": 1.00271261,
        "meta_eccentricity": 0.00030271,
        "meta_inclination": 0.073,
        "meta_ra_of_asc_node": 178.0783,
        "meta_arg_of_pericenter": 72.8613,
        "meta_mean_anomaly": 69.1342,
        "meta_ephemeris_type": 0,
        "meta_classification_type": "U",
        "meta_norad_cat_id": 44334,
        "meta_element_set_no": 999,
        "meta_rev_at_epoch": 502,
        "meta_bstar": 0,
        "meta_mean_motion_dot": 7.3e-07,
        "meta_mean_motion_ddot": 0,
        "tle_line1": "1 44334U 19034B   25352.62666839  .00000073  00000+0  00000+0 0  9996",
        "tle_line2": "2 44334   0.0730 178.0783 0003027  72.8613  69.1342  1.00271261  5025"
      },
      "geometry": {
        "type": "Point",
        "coordinates": [
          88.7552042977605,
          -0.044568928331838516
        ]
      }
    },
    {
      "type": "Feature",
      "properties": {
        "norad_id": 44624,
        "name": "EUTELSAT 5 WEST B",
        "group": "eutelsat",
        "lat": 0.0930344729611489,
        "lon": 76.79444569774525,
        "alt_km": 35798.714821920374,
        "timestamp": "2025-12-18T23:35:48.718933+00:00",
        "meta_object_name": "EUTELSAT 5 WEST B",
        "meta_object_id": "2019-067A",
        "meta_epoch": "2025-12-18T08:08:02.579136",
        "meta_mean_motion": 1.00271263,
        "meta_eccentricity": 0.00030044,
        "meta_inclination": 0.0696,
        "meta_ra_of_asc_node": 331.0645,
        "meta_arg_of_pericenter": 296.4437,
        "meta_mean_anomaly": 296.7151,
        "meta_ephemeris_type": 0,
        "meta_classification_type": "U",
        "meta_norad_cat_id": 44624,
        "meta_element_set_no": 999,
        "meta_rev_at_epoch": 2262,
        "meta_bstar": 0,
        "meta_mean_motion_dot": -1.7e-07,
        "meta_mean_motion_ddot": 0,
        "tle_line1": "1 44624U 19067A   25352.33891874 -.00000017  00000+0  00000+0 0  9990",
        "tle_line2": "2 44624   0.0696 331.0645 0003004 296.4437 296.7151  1.00271263 22622"
      },
      "geometry": {
        "type": "Point",
        "coordinates": [
          76.79444569774525,
          0.0930344729611489
        ]
      }
    },
    {
      "type": "Feature",
      "properties": {
        "norad_id": 45027,
        "name": "EUTELSAT KONNECT",
        "group": "eutelsat",
        "lat": 0.020307303054590258,
        "lon": 88.98536829378281,
        "alt_km": 35791.31531437682,
        "timestamp": "2025-12-18T23:35:48.718945+00:00",
        "meta_object_name": "EUTELSAT KONNECT",
        "meta_object_id": "2020-005B",
        "meta_epoch": "2025-12-18T13:19:48.974880",
        "meta_mean_motion": 1.00271787,
        "meta_eccentricity": 0.00013003,
        "meta_inclination": 0.0729,
        "meta_ra_of_asc_node": 95.4985,
        "meta_arg_of_pericenter": 190.5177,
        "meta_mean_anomaly": 8.5553,
        "meta_ephemeris_type": 0,
        "meta_classification_type": "U",
        "meta_norad_cat_id": 45027,
        "meta_element_set_no": 999,
        "meta_rev_at_epoch": 2252,
        "meta_bstar": 0,
        "meta_mean_motion_dot": 7.5e-07,
        "meta_mean_motion_ddot": 0,
        "tle_line1": "1 45027U 20005B   25352.55542795  .00000075  00000+0  00000+0 0  9994",
        "tle_line2": "2 45027   0.0729  95.4985 0001300 190.5177   8.5553  1.00271787 22522"
      },
      "geometry": {
        "type": "Point",
        "coordinates": [
          88.98536829378281,
          0.020307303054590258
        ]
      }
    },
    {
      "type": "Feature",
      "properties": {
        "norad_id": 49056,
        "name": "EUTELSAT QUANTUM",
        "group": "eutelsat",
        "lat": 0.03325337242594021,
        "lon": 129.46460424932317,
        "alt_km": 35798.24002200428,
        "timestamp": "2025-12-18T23:35:48.718956+00:00",
        "meta_object_name": "EUTELSAT QUANTUM",
        "meta_object_id": "2021-069B",
        "meta_epoch": "2025-12-18T13:31:17.874912",
        "meta_mean_motion": 1.00271306,
        "meta_eccentricity": 0.00033295,
        "meta_inclination": 0.0155,
        "meta_ra_of_asc_node": 20.1385,
        "meta_arg_of_pericenter": 258.3771,
        "meta_mean_anomaly": 59.4383,
        "meta_ephemeris_type": 0,
        "meta_classification_type": "U",
        "meta_norad_cat_id": 49056,
        "meta_element_set_no": 999,
        "meta_rev_at_epoch": 1611,
        "meta_bstar": 0,
        "meta_mean_motion_dot": 1.51e-06,
        "meta_mean_motion_ddot": 0,
        "tle_line1": "1 49056U 21069B   25352.56340133  .00000151  00000+0  00000+0 0  9999",
        "tle_line2": "2 49056   0.0155  20.1385 0003329 258.3771  59.4383  1.00271306 16117"
      },
      "geometry": {
        "type": "Point",
        "coordinates": [
          129.46460424932317,
          0.03325337242594021
        ]
      }
    },
    {
      "type": "Feature",
      "properties": {
        "norad_id": 53765,
        "name": "EUTELSAT KONNECT VHTS",
        "group": "eutelsat",
        "lat": 0.012853814248897309,
        "lon": 84.50653068746567,
        "alt_km": 35795.7372990983,
        "timestamp": "2025-12-18T23:35:48.718982+00:00",
        "meta_object_name": "EUTELSAT KONNECT VHTS",
        "meta_object_id": "2022-110A",
        "meta_epoch": "2025-12-18T13:18:19.118880",
        "meta_mean_motion": 1.00269636,
        "meta_eccentricity": 0.00022976,
        "meta_inclination": 0.0639,
        "meta_ra_of_asc_node": 100.9072,
        "meta_arg_of_pericenter": 142.3549,
        "meta_mean_anomaly": 46.4723,
        "meta_ephemeris_type": 0,
        "meta_classification_type": "U",
        "meta_norad_cat_id": 53765,
        "meta_element_set_no": 999,
        "meta_rev_at_epoch": 501,
        "meta_bstar": 0,
        "meta_mean_motion_dot": 4.2e-07,
        "meta_mean_motion_ddot": 0,
        "tle_line1": "1 53765U 22110A   25352.55438795  .00000042  00000+0  00000+0 0  9999",
        "tle_line2": "2 53765   0.0639 100.9072 0002297 142.3549  46.4723  1.00269636  5018"
      },
      "geometry": {
        "type": "Point",
        "coordinates": [
          84.50653068746567,
          0.012853814248897309
        ]
      }
    },
    {
      "type": "Feature",
      "properties": {
        "norad_id": 54048,
        "name": "EUTELSAT HOTBIRD 13F",
        "group": "eutelsat",
        "lat": 0.03650706734371633,
        "lon": 94.79732903588763,
        "alt_km": 35786.067306989644,
        "timestamp": "2025-12-18T23:35:48.718995+00:00",
        "meta_object_name": "EUTELSAT HOTBIRD 13F",
        "meta_object_id": "2022-134A",
        "meta_epoch": "2025-12-18T08:13:17.076864",
        "meta_mean_motion": 1.00271529,
        "meta_eccentricity": 0.00022321,
        "meta_inclination": 0.052,
        "meta_ra_of_asc_node": 292.8165,
        "meta_arg_of_pericenter": 71.9621,
        "meta_mean_anomaly": 218.7416,
        "meta_ephemeris_type": 0,
        "meta_classification_type": "U",
        "meta_norad_cat_id": 54048,
        "meta_element_set_no": 999,
        "meta_rev_at_epoch": 1156,
        "meta_bstar": 0,
        "meta_mean_motion_dot": 1.12e-06,
        "meta_mean_motion_ddot": 0,
        "tle_line1": "1 54048U 22134A   25352.34255876  .00000112  00000+0  00000+0 0  9992",
        "tle_line2": "2 54048   0.0520 292.8165 0002232  71.9621 218.7416  1.00271529 11567"
      },
      "geometry": {
        "type": "Point",
        "coordinates": [
          94.79732903588763,
          0.03650706734371633
        ]
      }
    },
    {
      "type": "Feature",
      "properties": {
        "norad_id": 54225,
        "name": "EUTELSAT HOTBIRD 13G",
        "group": "eutelsat",
        "lat": 0.0006955631326280758,
        "lon": 94.7472721050351,
        "alt_km": 35784.61227747294,
        "timestamp": "2025-12-18T23:35:48.719008+00:00",
        "meta_object_name": "EUTELSAT HOTBIRD 13G",
        "meta_object_id": "2022-146A",
        "meta_epoch": "2025-12-18T08:13:17.076864",
        "meta_mean_motion": 1.00271376,
        "meta_eccentricity": 0.00019173,
        "meta_inclination": 0.0519,
        "meta_ra_of_asc_node": 233.0984,
        "meta_arg_of_pericenter": 300.7075,
        "meta_mean_anomaly": 49.7114,
        "meta_ephemeris_type": 0,
        "meta_classification_type": "U",
        "meta_norad_cat_id": 54225,
        "meta_element_set_no": 999,
        "meta_rev_at_epoch": 565,
        "meta_bstar": 0,
        "meta_mean_motion_dot": 1.12e-06,
        "meta_mean_motion_ddot": 0,
        "tle_line1": "1 54225U 22146A   25352.34255876  .00000112  00000+0  00000+0 0  9992",
        "tle_line2": "2 54225   0.0519 233.0984 0001917 300.7075  49.7114  1.00271376  5653"
      },
      "geometry": {
        "type": "Point",
        "coordinates": [
          94.7472721050351,
          0.0006955631326280758
        ]
      }
    }
  ]
}